NORAD_CAT_ID,OBJECT_NAME,OBJECT_TYPE,EPOCH,MEAN_MOTION,ECCENTRICITY,INCLINATION,RA_OF_ASC_NODE,ARG_OF_PERICENTER,MEAN_ANOMALY,BSTAR,MEAN_MOTION_DOT,MEAN_MOTION_DDOT,TLE_LINE0,TLE_LINE1,TLE_LINE2,SEMIMAJOR_AXIS,PERIOD,APOGEE,PERIGEE,DECAYED
51743.0,STARLINK-3512,PAYLOAD,2023-05-11 15:21:43,15.08843737,6.03e-05,53.216,266.6725,76.674,283.432,6.7552e-05,7.88e-06,0.0,0 STARLINK-3512,1 51743U 22016AF  23131.64008430  .00000788  00000-0  67552-4 0  9998,2 51743  53.2160 266.6725 0000603  76.6740 283.4320 15.08843737 67744,6917.869,95.437,540.151,539.317,0.0
51743.0,STARLINK-3512,PAYLOAD,2023-05-12 02:29:25,15.08846146,5.02e-05,53.2162,264.5914,68.7289,291.3757,3.8474e-05,3.25e-06,0.0,0 STARLINK-3512,1 51743U 22016AF  23132.10376292  .00000325  00000-0  38474-4 0  9992,2 51743  53.2162 264.5914 0000502  68.7289 291.3757 15.08846146 67818,6917.862,95.437,540.074,539.379,0.0
51743.0,STARLINK-3512,PAYLOAD,2023-05-12 15:12:30,15.08839499,7.83e-05,53.2163,262.2072,161.2431,198.859,7.9631e-05,9.8e-06,0.0,0 STARLINK-3512,1 51743U 22016AF  23132.63368539  .00000980  00000-0  79631-4 0  9992,2 51743  53.2163 262.2072 0000783 161.2431 198.8590 15.08839499 69022,6917.882,95.438,540.289,539.205,0.0
51743.0,STARLINK-3512,PAYLOAD,2023-05-13 13:27:54,15.08841501,4.17e-05,53.2157,258.046,117.7398,242.3637,7.9792e-05,9.83e-06,0.0,0 STARLINK-3512,1 51743U 22016AF  23133.56104466  .00000983  00000-0  79792-4 0  9993,2 51743  53.2157 258.0460 0000417 117.7398 242.3637 15.08841501 68035,6917.876,95.437,540.029,539.452,0.0
51743.0,STARLINK-3512,PAYLOAD,2023-05-14 06:57:09,15.08834826,5.39e-05,53.2157,254.7757,105.6762,254.429,8.248e-05,1.025e-05,0.0,0 STARLINK-3512,1 51743U 22016AF  23134.28969016  .00001025  00000-0  82480-4 0  9999,2 51743  53.2157 254.7757 0000539 105.6762 254.4290 15.08834826 69271,6917.896,95.438,540.134,539.388,0.0
51743.0,STARLINK-3512,PAYLOAD,2023-05-14 13:18:42,15.08820215,4.82e-05,53.216,253.5874,63.2791,296.8251,0.00027088,4.024e-05,0.0,0 STARLINK-3512,1 51743U 22016AF  23134.55465657  .00004024  00000-0  27088-3 0  9995,2 51743  53.2160 253.5874 0000482  63.2791 296.8251 15.08820215 69319,6917.941,95.439,540.139,539.472,0.0
51743.0,STARLINK-3512,PAYLOAD,2023-05-14 14:54:04,15.08839901,5.89e-05,53.2161,253.2891,70.7165,289.3891,4.3619e-05,4.07e-06,0.0,0 STARLINK-3512,1 51743U 22016AF  23134.62088898  .00000407  00000-0  43619-4 0  9991,2 51743  53.2161 253.2891 0000589  70.7165 289.3891 15.08839901 68196,6917.881,95.438,540.153,539.338,0.0
51743.0,STARLINK-3512,PAYLOAD,2023-05-15 00:26:23,15.08836709,7.34e-05,53.2166,251.5041,63.6333,296.4734,1.4397e-05,-5.9e-07,0.0,0 STARLINK-3512,1 51743U 22016AF  23135.01833172 -.00000059  00000-0  14397-4 0  9993,2 51743  53.2166 251.5041 0000734  63.6333 296.4734 15.08836709 69389,6917.89,95.438,540.263,539.248,0.0
51743.0,STARLINK-3512,PAYLOAD,2023-05-15 13:09:29,15.08837552,5.01e-05,53.2156,249.1284,81.3372,278.7677,1.2081e-05,-9.5e-07,0.0,0 STARLINK-3512,1 51743U 22016AF  23135.54825308 -.00000095  00000-0  12081-4 0  9991,2 51743  53.2156 249.1284 0000501  81.3372 278.7677 15.08837552 68332,6917.888,95.438,540.099,539.406,0.0
51743.0,STARLINK-3512,PAYLOAD,2023-05-15 16:20:15,15.08840973,5.63e-05,53.2159,248.5329,78.85,281.2555,8.1408e-05,1.008e-05,0.0,0 STARLINK-3512,1 51743U 22016AF  23135.68072918  .00001008  00000-0  81408-4 0  9990,2 51743  53.2159 248.5329 0000563  78.8500 281.2555 15.08840973 68357,6917.877,95.437,540.132,539.353,0.0
51743.0,STARLINK-3512,PAYLOAD,2023-05-16 06:38:44,15.08830227,5.92e-05,53.2163,245.8563,80.5559,279.55,3.392e-05,2.52e-06,0.0,0 STARLINK-3512,1 51743U 22016AF  23136.27689889  .00000252  00000-0  33920-4 0  9993,2 51743  53.2163 245.8563 0000592  80.5559 279.5500 15.08830227 69574,6917.91,95.438,540.185,539.366,0.0
51743.0,STARLINK-3512,PAYLOAD,2023-05-16 13:00:16,15.08835156,7.78e-05,53.216,244.667,96.4942,263.6139,5.6269e-05,6.08e-06,0.0,0 STARLINK-3512,1 51743U 22016AF  23136.54185578  .00000608  00000-0  56269-4 0  9995,2 51743  53.2160 244.6670 0000778  96.4942 263.6139 15.08835156 68482,6917.895,95.438,540.298,539.222,0.0
51743.0,STARLINK-3512,PAYLOAD,2023-05-16 16:11:02,15.08840248,5.65e-05,53.2159,244.072,83.4021,276.7036,0.00010776,1.428e-05,0.0,0 STARLINK-3512,1 51743U 22016AF  23136.67433108  .00001428  00000-0  10776-3 0  9997,2 51743  53.2159 244.0720 0000565  83.4021 276.7036 15.08840248 69635,6917.88,95.438,540.135,539.354,0.0
51743.0,STARLINK-3512,PAYLOAD,2023-05-17 11:15:40,15.08835013,5.38e-05,53.2158,240.5035,91.8367,268.2687,8.1627e-05,1.012e-05,0.0,0 STARLINK-3512,1 51743U 22016AF  23137.46921644  .00001012  00000-0  81627-4 0  9995,2 51743  53.2158 240.5035 0000538  91.8367 268.2687 15.08835013 69755,6917.896,95.438,540.133,539.388,0.0
51743.0,STARLINK-3512,PAYLOAD,2023-05-17 14:26:26,15.08842287,6.29e-05,53.2159,239.9085,90.0172,270.0893,4.1616e-05,3.75e-06,0.0,0 STARLINK-3512,1 51743U 22016AF  23137.60169361  .00000375  00000-0  41616-4 0  9996,2 51743  53.2159 239.9085 0000629  90.0172 270.0893 15.08842287 68647,6917.873,95.437,540.174,539.303,0.0
51743.0,STARLINK-3512,PAYLOAD,2023-05-18 12:41:50,15.08837112,5.6e-05,53.2152,235.7468,95.5921,264.5135,3.5713e-05,2.81e-06,0.0,0 STARLINK-3512,1 51743U 22016AF  23138.52905724  .00000281  00000-0  35713-4 0  9996,2 51743  53.2152 235.7468 0000560  95.5921 264.5135 15.08837112 69914,6917.889,95.438,540.142,539.367,0.0
51743.0,STARLINK-3512,PAYLOAD,2023-05-18 15:52:36,15.08841257,5.93e-05,53.2152,235.1518,104.0881,256.0177,7.1033e-05,8.43e-06,0.0,0 STARLINK-3512,1 51743U 22016AF  23138.66153338  .00000843  00000-0  71033-4 0  9996,2 51743  53.2152 235.1518 0000593 104.0881 256.0177 15.08841257 68805,6917.877,95.437,540.152,539.331,0.0
51743.0,STARLINK-3512,PAYLOAD,2023-05-19 12:32:37,15.08843286,6.49e-05,53.2154,231.2836,100.0704,260.0361,2.851e-05,1.66e-06,0.0,0 STARLINK-3512,1 51743U 22016AF  23139.52265374  .00000166  00000-0  28510-4 0  9996,2 51743  53.2154 231.2836 0000649 100.0704 260.0361 15.08843286 68937,6917.87,95.437,540.184,539.286,0.0
51743.0,STARLINK-3512,PAYLOAD,2023-05-20 10:48:00,15.08838173,6.42e-05,53.2156,227.1221,77.4663,282.6401,0.00020631,2.997e-05,0.0,0 STARLINK-3512,1 51743U 22016AF  23140.45001146  .00002997  00000-0  20631-3 0  9994,2 51743  53.2156 227.1221 0000642  77.4663 282.6401 15.08838173 70202,6917.886,95.438,540.195,539.307,0.0
51743.0,STARLINK-3512,PAYLOAD,2023-05-20 15:34:09,15.0885682,7.26e-05,53.2157,226.2287,79.477,280.6304,0.00014486,2.02e-05,0.0,0 STARLINK-3512,1 51743U 22016AF  23140.64871999  .00002020  00000-0  14486-3 0  9994,2 51743  53.2157 226.2287 0000726  79.4770 280.6304 15.08856820 70231,6917.829,95.436,540.196,539.192,0.0
51743.0,STARLINK-3512,PAYLOAD,2023-05-21 09:03:24,15.08846509,0.0001012,53.2166,222.9538,106.575,253.5353,5.7034e-05,6.2e-06,0.0,0 STARLINK-3512,1 51743U 22016AF  23141.37736580  .00000620  00000-0  57034-4 0  9992,2 51743  53.2166 222.9538 0001012 106.5750 253.5353 15.08846509 70340,6917.86,95.437,540.426,539.025,0.0
51743.0,STARLINK-3512,PAYLOAD,2023-05-21 10:38:47,15.08844765,6.82e-05,53.2162,222.6589,93.0972,267.0098,8.1407e-05,1.008e-05,0.0,0 STARLINK-3512,1 51743U 22016AF  23141.44360547  .00001008  00000-0  81407-4 0  9998,2 51743  53.2162 222.6589 0000682  93.0972 267.0098 15.08844765 69220,6917.866,95.437,540.203,539.259,0.0
51743.0,STARLINK-3512,PAYLOAD,2023-05-21 12:14:10,15.08851945,7.31e-05,53.2161,222.3638,64.1893,295.9174,9.027e-05,1.15e-05,0.0,0 STARLINK-3512,1 51743U 22016AF  23141.50984049  .00001150  00000-0  90270-4 0  9990,2 51743  53.2161 222.3638 0000731  64.1893 295.9174 15.08851945 70367,6917.844,95.437,540.215,539.203,0.0
51743.0,STARLINK-3512,PAYLOAD,2023-05-21 21:46:29,15.0884116,7.26e-05,53.2167,220.5777,78.2595,281.8479,-1.7541e-05,-5.67e-06,0.0,0 STARLINK-3512,1 51743U 22016AF  23141.90728948 -.00000567  00000-0 -17541-4 0  9991,2 51743  53.2167 220.5777 0000726  78.2595 281.8479 15.08841160 69296,6917.877,95.437,540.244,539.24,0.0
51743.0,STARLINK-3512,PAYLOAD,2023-05-22 08:54:12,15.08832422,8.13e-05,53.2154,218.4985,115.0861,245.0216,-0.00021959,-3.78e-05,0.0,0 STARLINK-3512,1 51743U 22016AF  23142.37098215 -.00003780  00000-0 -21959-3 0  9997,2 51743  53.2154 218.4985 0000813 115.0861 245.0216 15.08832422 70498,6917.904,95.438,540.331,539.206,0.0
51743.0,STARLINK-3512,PAYLOAD,2023-05-22 12:04:58,15.08837883,5.32e-05,53.2158,217.904,88.1531,271.9522,-0.00016175,-2.861e-05,0.0,0 STARLINK-3512,1 51743U 22016AF  23142.50345756 -.00002861  00000-0 -16175-3 0  9990,2 51743  53.2158 217.9040 0000532  88.1531 271.9522 15.08837883 69380,6917.887,95.438,540.12,539.384,0.0
51743.0,STARLINK-3512,PAYLOAD,2023-05-23 16:41:54,15.08870444,3.95e-05,53.2151,212.5527,101.4556,258.6481,-0.00047574,-7.857e-05,0.0,0 STARLINK-3512,1 51743U 22016AF  23143.69577030 -.00007857  00000-0 -47574-3 0  9990,2 51743  53.2151 212.5527 0000395 101.4556 258.6481 15.08870444 70699,6917.787,95.436,539.926,539.379,0.0
51743.0,STARLINK-3512,PAYLOAD,2023-05-23 21:28:04,15.0884242,9.07e-05,53.2152,211.6604,150.9973,209.107,-9.4784e-05,-1.796e-05,0.0,0 STARLINK-3512,1 51743U 22016AF  23143.89449696 -.00001796  00000-0 -94784-4 0  9990,2 51743  53.2152 211.6604 0000907 150.9973 209.1070 15.08842420 69592,6917.873,95.437,540.365,539.111,0.0
51743.0,STARLINK-3512,PAYLOAD,2023-05-24 08:35:46,15.08844087,4.38e-05,53.2151,209.5786,100.5535,259.5507,-3.7224e-05,-8.8e-06,0.0,0 STARLINK-3512,1 51743U 22016AF  23144.35817760 -.00000880  00000-0 -37224-4 0  9992,2 51743  53.2151 209.5786 0000438 100.5535 259.5507 15.08844087 69665,6917.868,95.437,540.036,539.43,0.0
51743.0,STARLINK-3512,PAYLOAD,2023-05-26 09:52:44,15.08845228,7.86e-05,53.2164,200.3602,70.2922,289.8155,5.4807e-05,5.85e-06,0.0,0 STARLINK-3512,1 51743U 22016AF  23146.41162144  .00000585  00000-0  54807-4 0  9996,2 51743  53.2164 200.3602 0000786  70.2922 289.8155 15.08845228 71109,6917.864,95.437,540.273,539.186,0.0
